[{"OBJECT_NAME":"SHIYAN-13 (SY-13)","OBJECT_ID":"2022-004A","EPOCH":"2026-03-09T23:59:10.497984","MEAN_MOTION":14.19820132,"ECCENTRICITY":0.06076023,"INCLINATION":98.4671,"RA_OF_ASC_NODE":92.2685,"ARG_OF_PERICENTER":122.0091,"MEAN_ANOMALY":244.1614,"EPHEMERIS_TYPE":0,"CLASSIFICATION_TYPE":"U","NORAD_CAT_ID":51102,"ELEMENT_SET_NO":999,"REV_AT_EPOCH":21321,"BSTAR":0.0002501462,"MEAN_MOTION_DOT":3.736e-5,"MEAN_MOTION_DDOT":0},{"OBJECT_NAME":"HYPERVIEW 1G (RS66S)","OBJECT_ID":"2024-199AP","EPOCH":"2026-03-09T22:47:00.600864","MEAN_MOTION":15.58013725,"ECCENTRICITY":0.00064415,"INCLINATION":97.3083,"RA_OF_ASC_NODE":305.028,"ARG_OF_PERICENTER":283.1837,"MEAN_ANOMALY":76.87,"EPHEMERIS_TYPE":0,"CLASSIFICATION_TYPE":"U","NORAD_CAT_ID":61772,"ELEMENT_SET_NO":999,"REV_AT_EPOCH":11914,"BSTAR":0.0010158871,"MEAN_MOTION_DOT":0.00076691,"MEAN_MOTION_DDOT":0}]
